{
 "type": "FeatureCollection",
 "features": [
  {
   "type": "Feature",
   "geometry": {
    "type": "Polygon",
    "coordinates": [
     [
      [
       75.7754946,
       27.9985223
      ],
      [
       75.776428,
       27.9985791
      ],
      [
       75.7766855,
       27.9989486
      ],
      [
       75.7763207,
       28.0013547
      ],
      [
       75.7750761,
       28.002321
      ],
      [
       75.774014,
       28.0024062
      ],
      [
       75.7734775,
       28.0018663
      ],
      [
       75.7743359,
       28.0007864
      ],
      [
       75.7747972,
       28.000199
      ],
      [
       75.7749689,
       27.9991286
      ],
      [
       75.7754946,
       27.9985223
      ]
     ]
    ]
   },
   "properties": {
    "osm_type": "way",
    "osm_id": 673044916,
    "landuse": "quarry",
    "source": "OpenStreetMap contributors (ODbL)"
   }
  },
  {
   "type": "Feature",
   "geometry": {
    "type": "Polygon",
    "coordinates": [
     [
      [
       75.8132601,
       28.0719614
      ],
      [
       75.8159315,
       28.0741766
      ],
      [
       75.8158028,
       28.074754
      ],
      [
       75.8180129,
       28.0772531
      ],
      [
       75.8196437,
       28.0785121
      ],
      [
       75.820502,
       28.0789192
      ],
      [
       75.8204162,
       28.0791085
      ],
      [
       75.8206308,
       28.079241
      ],
      [
       75.8182812,
       28.081456
      ],
      [
       75.8182704,
       28.0817589
      ],
      [
       75.8204806,
       28.0816832
      ],
      [
       75.8205986,
       28.0845513
      ],
      [
       75.8162641,
       28.083813
      ],
      [
       75.8156526,
       28.0839455
      ],
      [
       75.8134639,
       28.0820997
      ],
      [
       75.813185,
       28.0814371
      ],
      [
       75.8136141,
       28.0809638
      ],
      [
       75.8126056,
       28.0793357
      ],
      [
       75.8128524,
       28.0792126
      ],
      [
       75.8124447,
       28.0783796
      ],
      [
       75.8115971,
       28.0780009
      ],
      [
       75.8113825,
       28.0771869
      ],
      [
       75.8110177,
       28.0770449
      ],
      [
       75.8093655,
       28.072501
      ],
      [
       75.8094299,
       28.0712419
      ],
      [
       75.8108997,
       28.071488
      ],
      [
       75.8106422,
       28.0703804
      ],
      [
       75.8113503,
       28.0702668
      ],
      [
       75.8125305,
       28.0718383
      ],
      [
       75.8132601,
       28.0719614
      ]
     ]
    ]
   },
   "properties": {
    "osm_type": "way",
    "osm_id": 673044924,
    "landuse": "industrial",
    "name": "Khetri Copper Complex",
    "source": "OpenStreetMap contributors (ODbL)"
   }
  },
  {
   "type": "Feature",
   "geometry": {
    "type": "Polygon",
    "coordinates": [
     [
      [
       75.8027029,
       27.900118
      ],
      [
       75.8057928,
       27.900118
      ],
      [
       75.8099985,
       27.9030762
      ],
      [
       75.8108568,
       27.9044037
      ],
      [
       75.8108997,
       27.9070584
      ],
      [
       75.8099985,
       27.9070584
      ],
      [
       75.8093118,
       27.9044037
      ],
      [
       75.8032178,
       27.9010662
      ],
      [
       75.8027029,
       27.900118
      ]
     ]
    ]
   },
   "properties": {
    "osm_type": "way",
    "osm_id": 673127915,
    "landuse": "quarry",
    "source": "OpenStreetMap contributors (ODbL)"
   }
  },
  {
   "type": "Feature",
   "geometry": {
    "type": "Polygon",
    "coordinates": [
     [
      [
       75.8177232,
       27.9241231
      ],
      [
       75.8192253,
       27.9235164
      ],
      [
       75.8170366,
       27.918511
      ],
      [
       75.8166933,
       27.9169942
      ],
      [
       75.8150196,
       27.9140742
      ],
      [
       75.8131313,
       27.913695
      ],
      [
       75.8109426,
       27.9139984
      ],
      [
       75.8108997,
       27.9152877
      ],
      [
       75.8138609,
       27.9195349
      ],
      [
       75.8159208,
       27.9220755
      ],
      [
       75.8177232,
       27.9241231
      ]
     ]
    ]
   },
   "properties": {
    "osm_type": "way",
    "osm_id": 673127916,
    "landuse": "quarry",
    "source": "OpenStreetMap contributors (ODbL)"
   }
  },
  {
   "type": "Feature",
   "geometry": {
    "type": "Polygon",
    "coordinates": [
     [
      [
       75.7749152,
       28.0137067
      ],
      [
       75.7754731,
       28.0128731
      ],
      [
       75.7779407,
       28.0137635
      ],
      [
       75.7778871,
       28.0140855
      ],
      [
       75.7769859,
       28.0140855
      ],
      [
       75.7768035,
       28.0146823
      ],
      [
       75.7764816,
       28.0152316
      ],
      [
       75.7749152,
       28.0152316
      ],
      [
       75.7752049,
       28.0144739
      ],
      [
       75.7751942,
       28.0139813
      ],
      [
       75.7749152,
       28.0137067
      ]
     ]
    ]
   },
   "properties": {
    "osm_type": "way",
    "osm_id": 673127923,
    "landuse": "quarry",
    "mineral": "copper",
    "source": "OpenStreetMap contributors (ODbL)"
   }
  },
  {
   "type": "Feature",
   "geometry": {
    "type": "Polygon",
    "coordinates": [
     [
      [
       75.7676196,
       28.0158283
      ],
      [
       75.76792,
       28.0165103
      ],
      [
       75.7676625,
       28.0177795
      ],
      [
       75.7663321,
       28.0171733
      ],
      [
       75.7654524,
       28.0149948
      ],
      [
       75.765624,
       28.013934
      ],
      [
       75.7670831,
       28.013934
      ],
      [
       75.7674587,
       28.0152884
      ],
      [
       75.7676196,
       28.0158283
      ]
     ]
    ]
   },
   "properties": {
    "osm_type": "way",
    "osm_id": 673127924,
    "landuse": "quarry",
    "source": "OpenStreetMap contributors (ODbL)"
   }
  },
  {
   "type": "Feature",
   "geometry": {
    "type": "Polygon",
    "coordinates": [
     [
      [
       75.7890129,
       28.0517387
      ],
      [
       75.7885623,
       28.049239
      ],
      [
       75.7892918,
       28.0478566
      ],
      [
       75.7900429,
       28.0477429
      ],
      [
       75.7904506,
       28.0483111
      ],
      [
       75.7911587,
       28.048633
      ],
      [
       75.7923603,
       28.0490685
      ],
      [
       75.7930898,
       28.0496367
      ],
      [
       75.7932937,
       28.0499397
      ],
      [
       75.7938409,
       28.0500154
      ],
      [
       75.7955146,
       28.0513694
      ],
      [
       75.796566,
       28.0510096
      ],
      [
       75.7964373,
       28.0512463
      ],
      [
       75.7963407,
       28.0516156
      ],
      [
       75.7967269,
       28.0516156
      ],
      [
       75.7968771,
       28.0518618
      ],
      [
       75.7972312,
       28.0527518
      ],
      [
       75.7984757,
       28.0542194
      ],
      [
       75.8003211,
       28.0553366
      ],
      [
       75.8005571,
       28.0558668
      ],
      [
       75.8043337,
       28.0608375
      ],
      [
       75.8073592,
       28.0649558
      ],
      [
       75.8083248,
       28.0668871
      ],
      [
       75.8070373,
       28.0667546
      ],
      [
       75.8047628,
       28.0648043
      ],
      [
       75.8026814,
       28.0641606
      ],
      [
       75.8021879,
       28.0633653
      ],
      [
       75.7990551,
       28.0634032
      ],
      [
       75.7981539,
       28.06257
      ],
      [
       75.7981324,
       28.0610931
      ],
      [
       75.7932615,
       28.0567379
      ],
      [
       75.7903003,
       28.0533104
      ],
      [
       75.7892275,
       28.0523636
      ],
      [
       75.7890129,
       28.0517387
      ]
     ]
    ]
   },
   "properties": {
    "osm_type": "way",
    "osm_id": 673127925,
    "landuse": "landfill",
    "name": "Khetri Mine Tailing Resrvoir",
    "source": "OpenStreetMap contributors (ODbL)"
   }
  }
 ]
}