{
 "type": "FeatureCollection",
 "features": [
  {
   "type": "Feature",
   "geometry": {
    "type": "Polygon",
    "coordinates": [
     [
      [
       75.3964899,
       28.0808475
      ],
      [
       75.396222,
       28.0820739
      ],
      [
       75.3961526,
       28.0827024
      ],
      [
       75.3962819,
       28.0839845
      ],
      [
       75.4016815,
       28.0855196
      ],
      [
       75.4017729,
       28.0831196
      ],
      [
       75.4004269,
       28.0826329
      ],
      [
       75.399765,
       28.0824883
      ],
      [
       75.3989801,
       28.0822046
      ],
      [
       75.3964899,
       28.0808475
      ]
     ]
    ]
   },
   "properties": {
    "osm_type": "way",
    "osm_id": 126128324,
    "landuse": "industrial",
    "source": "OpenStreetMap contributors (ODbL)"
   }
  }
 ]
}