{
 "type": "FeatureCollection",
 "features": [
  {
   "type": "Feature",
   "geometry": {
    "type": "Polygon",
    "coordinates": [
     [
      [
       80.7104587,
       22.0230139
      ],
      [
       80.7101798,
       22.0219298
      ],
      [
       80.7089138,
       22.0208159
      ],
      [
       80.7080662,
       22.0209054
      ],
      [
       80.7063174,
       22.0188565
      ],
      [
       80.7037657,
       22.0193978
      ],
      [
       80.7028949,
       22.0195825
      ],
      [
       80.7050943,
       22.025759
      ],
      [
       80.7067588,
       22.0253443
      ],
      [
       80.7087314,
       22.0249136
      ],
      [
       80.7087743,
       22.0236803
      ],
      [
       80.7104587,
       22.0230139
      ]
     ]
    ]
   },
   "properties": {
    "osm_type": "way",
    "osm_id": 663664439,
    "landuse": "industrial",
    "source": "OpenStreetMap contributors (ODbL)"
   }
  },
  {
   "type": "Feature",
   "geometry": {
    "type": "Polygon",
    "coordinates": [
     [
      [
       80.7087059,
       22.0063653
      ],
      [
       80.7088923,
       21.9975499
      ],
      [
       80.7107216,
       21.9905067
      ],
      [
       80.7107994,
       21.9902779
      ],
      [
       80.7110381,
       21.9896337
      ],
      [
       80.7110488,
       21.9891562
      ],
      [
       80.7110274,
       21.9883504
      ],
      [
       80.7109952,
       21.9882932
      ],
      [
       80.710853,
       21.9881738
      ],
      [
       80.7107779,
       21.9880893
      ],
      [
       80.7107243,
       21.9880221
      ],
      [
       80.7106921,
       21.9879674
      ],
      [
       80.7106814,
       21.9879027
      ],
      [
       80.7106814,
       21.987858
      ],
      [
       80.7107055,
       21.9876913
      ],
      [
       80.7106975,
       21.9876466
      ],
      [
       80.7106465,
       21.9875918
      ],
      [
       80.7099116,
       21.9869477
      ],
      [
       80.7098579,
       21.9869203
      ],
      [
       80.7097587,
       21.9868059
      ],
      [
       80.7097077,
       21.9867164
      ],
      [
       80.7096836,
       21.9865995
      ],
      [
       80.7096782,
       21.9865273
      ],
      [
       80.7096595,
       21.9864826
      ],
      [
       80.7096326,
       21.9864552
      ],
      [
       80.7095227,
       21.9863806
      ],
      [
       80.70941,
       21.9863259
      ],
      [
       80.7093939,
       21.9863135
      ],
      [
       80.709351,
       21.986296
      ],
      [
       80.7092679,
       21.9862737
      ],
      [
       80.7092357,
       21.9862513
      ],
      [
       80.7091337,
       21.9861344
      ],
      [
       80.7090747,
       21.9860473
      ],
      [
       80.7090372,
       21.9859677
      ],
      [
       80.7090265,
       21.9859056
      ],
      [
       80.7090265,
       21.9858658
      ],
      [
       80.7090452,
       21.9857663
      ],
      [
       80.7090908,
       21.9857141
      ],
      [
       80.7091337,
       21.9856892
      ],
      [
       80.7093751,
       21.9855996
      ],
      [
       80.709469,
       21.9855574
      ],
      [
       80.7096353,
       21.9855201
      ],
      [
       80.7097748,
       21.9855151
      ],
      [
       80.7099143,
       21.985525
      ],
      [
       80.7099357,
       21.9855201
      ],
      [
       80.7099518,
       21.9855026
      ],
      [
       80.7099518,
       21.9854579
      ],
      [
       80.7098955,
       21.9853161
      ],
      [
       80.7098848,
       21.9852738
      ],
      [
       80.7098794,
       21.9852116
      ],
      [
       80.7097855,
       21.98505
      ],
      [
       80.7097024,
       21.9850251
      ],
      [
       80.7093671,
       21.9849878
      ],
      [
       80.7092813,
       21.9849505
      ],
      [
       80.7091016,
       21.9848187
      ],
      [
       80.709056,
       21.984749
      ],
      [
       80.7090345,
       21.9846869
      ],
      [
       80.7090318,
       21.9845277
      ],
      [
       80.7090238,
       21.984458
      ],
      [
       80.7089809,
       21.9843809
      ],
      [
       80.7089379,
       21.9843262
      ],
      [
       80.7084149,
       21.9840377
      ],
      [
       80.7083639,
       21.9840477
      ],
      [
       80.7082379,
       21.9841049
      ],
      [
       80.7081199,
       21.984182
      ],
      [
       80.708085,
       21.9842168
      ],
      [
       80.7080421,
       21.984274
      ],
      [
       80.7080233,
       21.9843113
      ],
      [
       80.7079831,
       21.984458
      ],
      [
       80.7079777,
       21.9844978
      ],
      [
       80.7079643,
       21.9845128
      ],
      [
       80.707908,
       21.9845451
      ],
      [
       80.7078409,
       21.984565
      ],
      [
       80.7077095,
       21.9845824
      ],
      [
       80.7074815,
       21.9845923
      ],
      [
       80.7073474,
       21.9846172
      ],
      [
       80.7072401,
       21.9846172
      ],
      [
       80.7068002,
       21.9845525
      ],
      [
       80.7067734,
       21.9845252
      ],
      [
       80.706768,
       21.9844431
      ],
      [
       80.7067975,
       21.9843387
      ],
      [
       80.7068083,
       21.9842168
      ],
      [
       80.7067975,
       21.9841745
      ],
      [
       80.7067868,
       21.9841596
      ],
      [
       80.7067573,
       21.9841347
      ],
      [
       80.7066983,
       21.9841049
      ],
      [
       80.7066366,
       21.9841073
      ],
      [
       80.7066205,
       21.9841173
      ],
      [
       80.7064891,
       21.9842516
      ],
      [
       80.7064703,
       21.9842615
      ],
      [
       80.7064006,
       21.9842864
      ],
      [
       80.7063496,
       21.9843163
      ],
      [
       80.7061967,
       21.9843362
      ],
      [
       80.7061163,
       21.9843287
      ],
      [
       80.7060733,
       21.9843113
      ],
      [
       80.7060572,
       21.9842989
      ],
      [
       80.7060331,
       21.9842615
      ],
      [
       80.7060063,
       21.9841447
      ],
      [
       80.7059902,
       21.9841347
      ],
      [
       80.7059312,
       21.9841272
      ],
      [
       80.70584,
       21.9841322
      ],
      [
       80.7055637,
       21.9841919
      ],
      [
       80.7054698,
       21.9842193
      ],
      [
       80.7049146,
       21.9844282
      ],
      [
       80.7032087,
       21.9851843
      ],
      [
       80.7007652,
       21.9862911
      ],
      [
       80.7004246,
       21.9863756
      ],
      [
       80.7003093,
       21.9863955
      ],
      [
       80.7001537,
       21.9864303
      ],
      [
       80.7000706,
       21.9864378
      ],
      [
       80.6999364,
       21.9864303
      ],
      [
       80.699797,
       21.9864105
      ],
      [
       80.6994215,
       21.9863781
      ],
      [
       80.6993517,
       21.9863657
      ],
      [
       80.6992927,
       21.9863433
      ],
      [
       80.6992605,
       21.9863184
      ],
      [
       80.6991881,
       21.9862165
      ],
      [
       80.6991559,
       21.9861841
      ],
      [
       80.6991398,
       21.9861717
      ],
      [
       80.6991023,
       21.9861617
      ],
      [
       80.6988448,
       21.9861941
      ],
      [
       80.6986839,
       21.986204
      ],
      [
       80.698362,
       21.9861568
      ],
      [
       80.6983003,
       21.9861344
      ],
      [
       80.6982467,
       21.986107
      ],
      [
       80.698185,
       21.9860672
      ],
      [
       80.6981555,
       21.9860399
      ],
      [
       80.6980482,
       21.9859105
      ],
      [
       80.6980079,
       21.9858807
      ],
      [
       80.6978658,
       21.9856842
      ],
      [
       80.6973728,
       21.985554
      ],
      [
       80.697246,
       21.9855205
      ],
      [
       80.6969243,
       21.9854355
      ],
      [
       80.69686,
       21.9854255
      ],
      [
       80.6967875,
       21.9854032
      ],
      [
       80.6967378,
       21.9853936
      ],
      [
       80.696632,
       21.9853733
      ],
      [
       80.6965495,
       21.9853841
      ],
      [
       80.6960884,
       21.9854447
      ],
      [
       80.6951541,
       21.9855673
      ],
      [
       80.6950387,
       21.9855972
      ],
      [
       80.6949154,
       21.9856195
      ],
      [
       80.6948537,
       21.9856394
      ],
      [
       80.6947625,
       21.9856892
      ],
      [
       80.6947061,
       21.9857265
      ],
      [
       80.6945345,
       21.9857961
      ],
      [
       80.6942394,
       21.9858533
      ],
      [
       80.6941187,
       21.9858434
      ],
      [
       80.6940785,
       21.9858309
      ],
      [
       80.6940061,
       21.9858285
      ],
      [
       80.69388,
       21.9858583
      ],
      [
       80.6937459,
       21.985918
      ],
      [
       80.6936708,
       21.9859677
      ],
      [
       80.6935421,
       21.9860896
      ],
      [
       80.6935286,
       21.986107
      ],
      [
       80.6934267,
       21.9861966
      ],
      [
       80.6933007,
       21.9862687
      ],
      [
       80.693078,
       21.9863657
      ],
      [
       80.6929547,
       21.9864303
      ],
      [
       80.6928071,
       21.9865746
      ],
      [
       80.6919408,
       21.9881838
      ],
      [
       80.6915492,
       21.9888254
      ],
      [
       80.6914633,
       21.9890493
      ],
      [
       80.6914714,
       21.9891786
      ],
      [
       80.6915036,
       21.989303
      ],
      [
       80.6915224,
       21.9893552
      ],
      [
       80.6916055,
       21.9895368
      ],
      [
       80.6916618,
       21.9896039
      ],
      [
       80.6917423,
       21.9897357
      ],
      [
       80.6918737,
       21.9899222
      ],
      [
       80.6919381,
       21.9899844
      ],
      [
       80.6921393,
       21.9901585
      ],
      [
       80.6921983,
       21.9902257
      ],
      [
       80.6922653,
       21.9902804
      ],
      [
       80.6922948,
       21.9903102
      ],
      [
       80.6928474,
       21.9906982
      ],
      [
       80.6931183,
       21.990932
      ],
      [
       80.6932658,
       21.991019
      ],
      [
       80.6933141,
       21.9910663
      ],
      [
       80.6933436,
       21.991126
      ],
      [
       80.6933731,
       21.9912479
      ],
      [
       80.6934214,
       21.9913896
      ],
      [
       80.6934616,
       21.9914767
      ],
      [
       80.6936252,
       21.9916682
      ],
      [
       80.6938183,
       21.9918622
      ],
      [
       80.6938988,
       21.9919989
      ],
      [
       80.6939068,
       21.9920412
      ],
      [
       80.6938961,
       21.9922253
      ],
      [
       80.6939042,
       21.992367
      ],
      [
       80.6938827,
       21.9926481
      ],
      [
       80.6938773,
       21.9927749
      ],
      [
       80.6938827,
       21.9928172
      ],
      [
       80.6939068,
       21.992852
      ],
      [
       80.6939229,
       21.9928669
      ],
      [
       80.6940597,
       21.9929341
      ],
      [
       80.694167,
       21.9929515
      ],
      [
       80.6942555,
       21.9929415
      ],
      [
       80.694344,
       21.9929142
      ],
      [
       80.6944004,
       21.9928744
      ],
      [
       80.6944218,
       21.9928644
      ],
      [
       80.6945264,
       21.9927451
      ],
      [
       80.6945693,
       21.9927152
      ],
      [
       80.6946552,
       21.9926779
      ],
      [
       80.6947196,
       21.9926655
      ],
      [
       80.6948617,
       21.9926157
      ],
      [
       80.6950092,
       21.9925312
      ],
      [
       80.6950682,
       21.9924889
      ],
      [
       80.6951112,
       21.9924392
      ],
      [
       80.6951702,
       21.9923919
      ],
      [
       80.6952292,
       21.9923645
      ],
      [
       80.6952533,
       21.9923645
      ],
      [
       80.6953686,
       21.9924466
      ],
      [
       80.6954142,
       21.992474
      ],
      [
       80.6954572,
       21.9924864
      ],
      [
       80.6956288,
       21.9924939
      ],
      [
       80.6957576,
       21.9925237
      ],
      [
       80.6959507,
       21.9925386
      ],
      [
       80.696117,
       21.992571
      ],
      [
       80.6961626,
       21.9925859
      ],
      [
       80.6962055,
       21.9926108
      ],
      [
       80.696243,
       21.9926406
      ],
      [
       80.6963611,
       21.9927525
      ],
      [
       80.6964764,
       21.9928943
      ],
      [
       80.6965408,
       21.9930087
      ],
      [
       80.6966051,
       21.9930783
      ],
      [
       80.6966883,
       21.9932002
      ],
      [
       80.6967017,
       21.9932375
      ],
      [
       80.6967044,
       21.9933618
      ],
      [
       80.6966937,
       21.9934141
      ],
      [
       80.6966856,
       21.9934414
      ],
      [
       80.6966239,
       21.9935633
      ],
      [
       80.696581,
       21.993623
      ],
      [
       80.6965515,
       21.9936553
      ],
      [
       80.6965166,
       21.99371
      ],
      [
       80.6964791,
       21.993817
      ],
      [
       80.696463,
       21.9938816
      ],
      [
       80.6964442,
       21.9939239
      ],
      [
       80.6964067,
       21.9939811
      ],
      [
       80.6963718,
       21.9940134
      ],
      [
       80.6962913,
       21.9941154
      ],
      [
       80.6962404,
       21.9942124
      ],
      [
       80.6961921,
       21.9942845
      ],
      [
       80.6961465,
       21.994384
      ],
      [
       80.6961384,
       21.9944288
      ],
      [
       80.6961438,
       21.994471
      ],
      [
       80.6961572,
       21.9944909
      ],
      [
       80.6962404,
       21.9944934
      ],
      [
       80.696404,
       21.994476
      ],
      [
       80.6964174,
       21.9944909
      ],
      [
       80.6964254,
       21.9945332
      ],
      [
       80.6964442,
       21.9945705
      ],
      [
       80.6964576,
       21.9946103
      ],
      [
       80.6964549,
       21.99467
      ],
      [
       80.6964013,
       21.9947347
      ],
      [
       80.6963852,
       21.9947471
      ],
      [
       80.6959721,
       21.9949834
      ],
      [
       80.6959239,
       21.9949883
      ],
      [
       80.6958729,
       21.9950207
      ],
      [
       80.6958246,
       21.9950679
      ],
      [
       80.6958032,
       21.9951077
      ],
      [
       80.6957898,
       21.9951699
      ],
      [
       80.6957898,
       21.9952097
      ],
      [
       80.6958032,
       21.995252
      ],
      [
       80.6958917,
       21.9953763
      ],
      [
       80.6959775,
       21.9954708
      ],
      [
       80.6960258,
       21.9955106
      ],
      [
       80.6961197,
       21.9955753
      ],
      [
       80.6962457,
       21.9956499
      ],
      [
       80.6962886,
       21.9956822
      ],
      [
       80.6963396,
       21.9957344
      ],
      [
       80.6963477,
       21.9957568
      ],
      [
       80.696353,
       21.9958588
      ],
      [
       80.6963932,
       21.9959085
      ],
      [
       80.6963986,
       21.9959284
      ],
      [
       80.6963852,
       21.996105
      ],
      [
       80.6964013,
       21.9961647
      ],
      [
       80.6965113,
       21.9962343
      ],
      [
       80.6968439,
       21.9963462
      ],
      [
       80.6969136,
       21.9963761
      ],
      [
       80.6970128,
       21.9964382
      ],
      [
       80.6970745,
       21.9965054
      ],
      [
       80.6971416,
       21.9966024
      ],
      [
       80.6971523,
       21.9966571
      ],
      [
       80.6971496,
       21.9967491
      ],
      [
       80.6971443,
       21.9967889
      ],
      [
       80.6971469,
       21.9968287
      ],
      [
       80.6971657,
       21.9968685
      ],
      [
       80.6971818,
       21.9968834
      ],
      [
       80.6972221,
       21.9969083
      ],
      [
       80.6973696,
       21.9969555
      ],
      [
       80.6974608,
       21.9970003
      ],
      [
       80.6975278,
       21.9970227
      ],
      [
       80.6975761,
       21.9970326
      ],
      [
       80.6977853,
       21.9970376
      ],
      [
       80.6979114,
       21.9970252
      ],
      [
       80.6980187,
       21.9970028
      ],
      [
       80.6980804,
       21.9969705
      ],
      [
       80.6980991,
       21.9969506
      ],
      [
       80.6981179,
       21.9969108
      ],
      [
       80.698126,
       21.9968685
      ],
      [
       80.6981233,
       21.9968486
      ],
      [
       80.6981313,
       21.9967615
      ],
      [
       80.6981528,
       21.9967019
      ],
      [
       80.6982145,
       21.9965974
      ],
      [
       80.6982601,
       21.9965352
      ],
      [
       80.6982869,
       21.9965303
      ],
      [
       80.6983861,
       21.9965477
      ],
      [
       80.6984264,
       21.9965701
      ],
      [
       80.6984612,
       21.9965999
      ],
      [
       80.6986007,
       21.9967516
      ],
      [
       80.6986383,
       21.9967765
      ],
      [
       80.6986651,
       21.9967814
      ],
      [
       80.6987616,
       21.9967814
      ],
      [
       80.6988904,
       21.9967665
      ],
      [
       80.6989601,
       21.996774
      ],
      [
       80.6990084,
       21.9967839
      ],
      [
       80.6990325,
       21.9967839
      ],
      [
       80.6992069,
       21.9967566
      ],
      [
       80.6994617,
       21.9967516
      ],
      [
       80.6996226,
       21.9967765
      ],
      [
       80.6997192,
       21.9968063
      ],
      [
       80.6997648,
       21.9968262
      ],
      [
       80.6998479,
       21.9968436
      ],
      [
       80.7000008,
       21.9968561
      ],
      [
       80.7001805,
       21.9968809
      ],
      [
       80.7002851,
       21.9969282
      ],
      [
       80.700312,
       21.9969331
      ],
      [
       80.7003844,
       21.9970127
      ],
      [
       80.7004568,
       21.9970625
      ],
      [
       80.7004917,
       21.9970948
      ],
      [
       80.7006338,
       21.9971794
      ],
      [
       80.7007089,
       21.9972664
      ],
      [
       80.7007948,
       21.997336
      ],
      [
       80.7008484,
       21.9973733
      ],
      [
       80.7009503,
       21.9974281
      ],
      [
       80.7010818,
       21.9974703
      ],
      [
       80.7011193,
       21.9974952
      ],
      [
       80.7011354,
       21.9975151
      ],
      [
       80.7011488,
       21.9975599
      ],
      [
       80.7011488,
       21.9975798
      ],
      [
       80.7011086,
       21.997724
      ],
      [
       80.7011059,
       21.9978483
      ],
      [
       80.7011542,
       21.9980995
      ],
      [
       80.7011756,
       21.9981393
      ],
      [
       80.7012561,
       21.9982438
      ],
      [
       80.7012856,
       21.9982736
      ],
      [
       80.7013929,
       21.9983557
      ],
      [
       80.7014385,
       21.998398
      ],
      [
       80.7015726,
       21.9984974
      ],
      [
       80.701637,
       21.9985323
      ],
      [
       80.7017443,
       21.9985372
      ],
      [
       80.7018435,
       21.9985273
      ],
      [
       80.7019079,
       21.9985173
      ],
      [
       80.7020259,
       21.9984775
      ],
      [
       80.7020983,
       21.9984726
      ],
      [
       80.7021251,
       21.9984775
      ],
      [
       80.7021734,
       21.9984974
      ],
      [
       80.7023558,
       21.9986093
      ],
      [
       80.7023692,
       21.9986268
      ],
      [
       80.7012254,
       22.0001915
      ],
      [
       80.7012416,
       22.0085761
      ],
      [
       80.7012317,
       22.0115414
      ],
      [
       80.7037657,
       22.0193978
      ],
      [
       80.7063174,
       22.0188565
      ],
      [
       80.7080662,
       22.0209054
      ],
      [
       80.7089138,
       22.0208159
      ],
      [
       80.7101798,
       22.0219298
      ],
      [
       80.7104587,
       22.0230139
      ],
      [
       80.7087743,
       22.0236803
      ],
      [
       80.7087314,
       22.0249136
      ],
      [
       80.7067588,
       22.0253443
      ],
      [
       80.7072052,
       22.0262513
      ],
      [
       80.7083981,
       22.0285943
      ],
      [
       80.7086593,
       22.0291303
      ],
      [
       80.709343,
       22.0305329
      ],
      [
       80.7103407,
       22.032691
      ],
      [
       80.710755,
       22.0336581
      ],
      [
       80.7112098,
       22.0347199
      ],
      [
       80.7127108,
       22.0346153
      ],
      [
       80.7188369,
       22.0345846
      ],
      [
       80.7218284,
       22.0365643
      ],
      [
       80.7221957,
       22.0366016
      ],
      [
       80.7225883,
       22.0364462
      ],
      [
       80.725083,
       22.033841
      ],
      [
       80.724828,
       22.0326653
      ],
      [
       80.7247268,
       22.0326767
      ],
      [
       80.724391,
       22.0317404
      ],
      [
       80.7248154,
       22.0315652
      ],
      [
       80.7248647,
       22.030955
      ],
      [
       80.7234104,
       22.0302213
      ],
      [
       80.7230918,
       22.028746
      ],
      [
       80.7258868,
       22.0282057
      ],
      [
       80.7258225,
       22.0254905
      ],
      [
       80.726528,
       22.0252311
      ],
      [
       80.7269729,
       22.0246402
      ],
      [
       80.7272446,
       22.0222278
      ],
      [
       80.7297601,
       22.0214571
      ],
      [
       80.730076,
       22.0204736
      ],
      [
       80.7300114,
       22.0194338
      ],
      [
       80.7295812,
       22.0177758
      ],
      [
       80.7280969,
       22.0132864
      ],
      [
       80.7266711,
       22.0106346
      ],
      [
       80.7245974,
       22.0083377
      ],
      [
       80.7181674,
       22.0078206
      ],
      [
       80.7183498,
       22.0077709
      ],
      [
       80.7184249,
       22.0077311
      ],
      [
       80.7186234,
       22.0075023
      ],
      [
       80.7186717,
       22.0074277
      ],
      [
       80.7187468,
       22.0072138
      ],
      [
       80.7188111,
       22.0069304
      ],
      [
       80.7188326,
       22.0067662
      ],
      [
       80.718838,
       22.0062191
      ],
      [
       80.7188487,
       22.0061793
      ],
      [
       80.7191062,
       22.0059207
      ],
      [
       80.7191813,
       22.005876
      ],
      [
       80.7193047,
       22.0056969
      ],
      [
       80.7193851,
       22.005493
      ],
      [
       80.7193798,
       22.0052543
      ],
      [
       80.7193261,
       22.0049757
      ],
      [
       80.7192296,
       22.0047171
      ],
      [
       80.7190686,
       22.004543
      ],
      [
       80.7188433,
       22.004369
      ],
      [
       80.7184786,
       22.0041252
      ],
      [
       80.7183874,
       22.0040506
      ],
      [
       80.7178241,
       22.0037671
      ],
      [
       80.7176202,
       22.0036925
      ],
      [
       80.7173628,
       22.0036826
      ],
      [
       80.7171965,
       22.0037075
      ],
      [
       80.7170248,
       22.0037622
      ],
      [
       80.7167673,
       22.0038965
      ],
      [
       80.7166386,
       22.0040009
      ],
      [
       80.7165635,
       22.0040904
      ],
      [
       80.7162577,
       22.0045381
      ],
      [
       80.7161128,
       22.0047171
      ],
      [
       80.7160485,
       22.0047668
      ],
      [
       80.7160002,
       22.0048216
      ],
      [
       80.7158339,
       22.004931
      ],
      [
       80.715614,
       22.0050454
      ],
      [
       80.7152492,
       22.0051946
      ],
      [
       80.7150829,
       22.005294
      ],
      [
       80.7148254,
       22.0055278
      ],
      [
       80.7147878,
       22.0055477
      ],
      [
       80.7145679,
       22.0054731
      ],
      [
       80.7141709,
       22.0053736
      ],
      [
       80.7139939,
       22.0053587
      ],
      [
       80.7138276,
       22.0053885
      ],
      [
       80.7136559,
       22.0054582
      ],
      [
       80.7135111,
       22.0055378
      ],
      [
       80.7133126,
       22.0057367
      ],
      [
       80.7132322,
       22.0057715
      ],
      [
       80.7131034,
       22.0057815
      ],
      [
       80.7129693,
       22.0057516
      ],
      [
       80.7128084,
       22.0057516
      ],
      [
       80.7127118,
       22.0057715
      ],
      [
       80.7126313,
       22.0058014
      ],
      [
       80.7124811,
       22.0058859
      ],
      [
       80.7123256,
       22.0060202
      ],
      [
       80.7121003,
       22.0062788
      ],
      [
       80.7120198,
       22.0064927
      ],
      [
       80.7119769,
       22.0065424
      ],
      [
       80.7119071,
       22.0065524
      ],
      [
       80.7116872,
       22.0064678
      ],
      [
       80.7114887,
       22.0064778
      ],
      [
       80.7112902,
       22.0065325
      ],
      [
       80.7087059,
       22.0063653
      ]
     ]
    ]
   },
   "properties": {
    "osm_type": "way",
    "osm_id": 663664440,
    "landuse": "quarry",
    "name": "Malanjkhand Copper Mine",
    "operator": "Hindustan Copper Limited",
    "resource": "copper",
    "wikidata": "Q6741275",
    "wikipedia": "en:Malanjkhand",
    "source": "OpenStreetMap contributors (ODbL)"
   }
  },
  {
   "type": "Feature",
   "geometry": {
    "type": "Polygon",
    "coordinates": [
     [
      [
       80.7114895,
       21.992944
      ],
      [
       80.7121033,
       21.9930645
      ],
      [
       80.7124778,
       21.9919646
      ],
      [
       80.7119546,
       21.9918086
      ],
      [
       80.7119078,
       21.9915878
      ],
      [
       80.7121649,
       21.9909414
      ],
      [
       80.7115949,
       21.9907448
      ],
      [
       80.7112265,
       21.9916977
      ],
      [
       80.7114895,
       21.992944
      ]
     ]
    ]
   },
   "properties": {
    "osm_type": "way",
    "osm_id": 1157850761,
    "landuse": "industrial",
    "source": "OpenStreetMap contributors (ODbL)"
   }
  },
  {
   "type": "Feature",
   "geometry": {
    "type": "Polygon",
    "coordinates": [
     [
      [
       80.7019167,
       22.0013388
      ],
      [
       80.7037871,
       22.0010429
      ],
      [
       80.7042729,
       22.0036827
      ],
      [
       80.7024021,
       22.0039785
      ],
      [
       80.7019167,
       22.0013388
      ]
     ]
    ]
   },
   "properties": {
    "osm_type": "way",
    "osm_id": 1157859678,
    "landuse": "industrial",
    "source": "OpenStreetMap contributors (ODbL)"
   }
  }
 ]
}